[{"OBJECT_NAME":"STARLINK-33949","OBJECT_ID":"2025-110K","EPOCH":"2025-11-26T18:43:45.929280","MEAN_MOTION":15.30201156,"ECCENTRICITY":0.00011658,"INCLINATION":53.1569,"RA_OF_ASC_NODE":144.98,"ARG_OF_PERICENTER":107.1241,"MEAN_ANOMALY":252.9888,"EPHEMERIS_TYPE":0,"CLASSIFICATION_TYPE":"U","NORAD_CAT_ID":64105,"ELEMENT_SET_NO":999,"REV_AT_EPOCH":3012,"BSTAR":0.0010413278,"MEAN_MOTION_DOT":0.0003061,"MEAN_MOTION_DDOT":0},{"OBJECT_NAME":"STARLINK-33970","OBJECT_ID":"2025-110L","EPOCH":"2025-11-26T18:30:04.627296","MEAN_MOTION":15.3023244,"ECCENTRICITY":0.00012286,"INCLINATION":53.1587,"RA_OF_ASC_NODE":144.9216,"ARG_OF_PERICENTER":89.7683,"MEAN_ANOMALY":270.3459,"EPHEMERIS_TYPE":0,"CLASSIFICATION_TYPE":"U","NORAD_CAT_ID":64106,"ELEMENT_SET_NO":999,"REV_AT_EPOCH":3012,"BSTAR":0.0010192883,"MEAN_MOTION_DOT":0.00029981,"MEAN_MOTION_DDOT":0},{"OBJECT_NAME":"STARLINK-33912","OBJECT_ID":"2025-110M","EPOCH":"2025-11-26T18:24:00.587808","MEAN_MOTION":15.30196275,"ECCENTRICITY":0.0001095,"INCLINATION":53.1589,"RA_OF_ASC_NODE":144.8938,"ARG_OF_PERICENTER":80.5786,"MEAN_ANOMALY":279.5338,"EPHEMERIS_TYPE":0,"CLASSIFICATION_TYPE":"U","NORAD_CAT_ID":64107,"ELEMENT_SET_NO":999,"REV_AT_EPOCH":3012,"BSTAR":0.00094917961,"MEAN_MOTION_DOT":0.00027855,"MEAN_MOTION_DDOT":0},{"OBJECT_NAME":"STARLINK-34156","OBJECT_ID":"2025-110N","EPOCH":"2025-11-26T18:10:20.053920","MEAN_MOTION":15.30200445,"ECCENTRICITY":0.00011193,"INCLINATION":53.1595,"RA_OF_ASC_NODE":144.8348,"ARG_OF_PERICENTER":70.3952,"MEAN_ANOMALY":289.717,"EPHEMERIS_TYPE":0,"CLASSIFICATION_TYPE":"U","NORAD_CAT_ID":64108,"ELEMENT_SET_NO":999,"REV_AT_EPOCH":3012,"BSTAR":0.00094205111,"MEAN_MOTION_DOT":0.00027646,"MEAN_MOTION_DDOT":0},{"OBJECT_NAME":"STARLINK-34124","OBJECT_ID":"2025-110P","EPOCH":"2025-11-26T18:19:27.201792","MEAN_MOTION":15.30198077,"ECCENTRICITY":0.00011744,"INCLINATION":53.1586,"RA_OF_ASC_NODE":144.8736,"ARG_OF_PERICENTER":77.3195,"MEAN_ANOMALY":282.7937,"EPHEMERIS_TYPE":0,"CLASSIFICATION_TYPE":"U","NORAD_CAT_ID":64109,"ELEMENT_SET_NO":999,"REV_AT_EPOCH":3012,"BSTAR":0.00087120245,"MEAN_MOTION_DOT":0.0002553,"MEAN_MOTION_DDOT":0},{"OBJECT_NAME":"STARLINK-34145","OBJECT_ID":"2025-110Q","EPOCH":"2025-11-26T18:34:38.898048","MEAN_MOTION":15.30191328,"ECCENTRICITY":0.00012796,"INCLINATION":53.1571,"RA_OF_ASC_NODE":144.9406,"ARG_OF_PERICENTER":72.6116,"MEAN_ANOMALY":287.5024,"EPHEMERIS_TYPE":0,"CLASSIFICATION_TYPE":"U","NORAD_CAT_ID":64110,"ELEMENT_SET_NO":999,"REV_AT_EPOCH":3012,"BSTAR":0.0010131474,"MEAN_MOTION_DOT":0.0002976,"MEAN_MOTION_DDOT":0},{"OBJECT_NAME":"STARLINK-34148","OBJECT_ID":"2025-110R","EPOCH":"2025-11-26T18:05:46.294656","MEAN_MOTION":15.30203239,"ECCENTRICITY":7.674e-5,"INCLINATION":53.1602,"RA_OF_ASC_NODE":144.8121,"ARG_OF_PERICENTER":103.3583,"MEAN_ANOMALY":256.7504,"EPHEMERIS_TYPE":0,"CLASSIFICATION_TYPE":"U","NORAD_CAT_ID":64111,"ELEMENT_SET_NO":999,"REV_AT_EPOCH":3012,"BSTAR":0.00093542333,"MEAN_MOTION_DOT":0.00027451,"MEAN_MOTION_DDOT":0},{"OBJECT_NAME":"STARLINK-34136","OBJECT_ID":"2025-110S","EPOCH":"2025-11-26T18:14:53.543616","MEAN_MOTION":15.30203352,"ECCENTRICITY":0.00011461,"INCLINATION":53.1593,"RA_OF_ASC_NODE":144.8534,"ARG_OF_PERICENTER":98.0626,"MEAN_ANOMALY":262.0505,"EPHEMERIS_TYPE":0,"CLASSIFICATION_TYPE":"U","NORAD_CAT_ID":64112,"ELEMENT_SET_NO":999,"REV_AT_EPOCH":3012,"BSTAR":0.0012968596,"MEAN_MOTION_DOT":0.00038252,"MEAN_MOTION_DDOT":0},{"OBJECT_NAME":"STARLINK-33839","OBJECT_ID":"2025-110T","EPOCH":"2025-11-26T19:30:42.399936","MEAN_MOTION":15.30206676,"ECCENTRICITY":0.0001014,"INCLINATION":53.1601,"RA_OF_ASC_NODE":144.4687,"ARG_OF_PERICENTER":97.4713,"MEAN_ANOMALY":262.6403,"EPHEMERIS_TYPE":0,"CLASSIFICATION_TYPE":"U","NORAD_CAT_ID":64113,"ELEMENT_SET_NO":999,"REV_AT_EPOCH":3013,"BSTAR":0.00089437,"MEAN_MOTION_DOT":0.00026228,"MEAN_MOTION_DDOT":0},{"OBJECT_NAME":"STARLINK-34064","OBJECT_ID":"2025-110U","EPOCH":"2025-11-26T18:25:31.747584","MEAN_MOTION":15.30195311,"ECCENTRICITY":0.00012104,"INCLINATION":53.1589,"RA_OF_ASC_NODE":144.9007,"ARG_OF_PERICENTER":91.3658,"MEAN_ANOMALY":268.7482,"EPHEMERIS_TYPE":0,"CLASSIFICATION_TYPE":"U","NORAD_CAT_ID":64114,"ELEMENT_SET_NO":999,"REV_AT_EPOCH":3012,"BSTAR":0.0010405874,"MEAN_MOTION_DOT":0.00030582,"MEAN_MOTION_DDOT":0},{"OBJECT_NAME":"STARLINK-34067","OBJECT_ID":"2025-110V","EPOCH":"2025-11-26T19:21:35.435232","MEAN_MOTION":15.30219967,"ECCENTRICITY":0.0001084,"INCLINATION":53.1595,"RA_OF_ASC_NODE":144.4317,"ARG_OF_PERICENTER":83.8418,"MEAN_ANOMALY":276.2706,"EPHEMERIS_TYPE":0,"CLASSIFICATION_TYPE":"U","NORAD_CAT_ID":64115,"ELEMENT_SET_NO":999,"REV_AT_EPOCH":3013,"BSTAR":0.00060583,"MEAN_MOTION_DOT":0.00017637,"MEAN_MOTION_DDOT":0},{"OBJECT_NAME":"STARLINK-34080","OBJECT_ID":"2025-110W","EPOCH":"2025-11-26T19:26:08.815200","MEAN_MOTION":15.30206216,"ECCENTRICITY":6.11e-5,"INCLINATION":53.1591,"RA_OF_ASC_NODE":144.4502,"ARG_OF_PERICENTER":83.0146,"MEAN_ANOMALY":277.0925,"EPHEMERIS_TYPE":0,"CLASSIFICATION_TYPE":"U","NORAD_CAT_ID":64116,"ELEMENT_SET_NO":999,"REV_AT_EPOCH":3012,"BSTAR":0.00046725,"MEAN_MOTION_DOT":0.00013507,"MEAN_MOTION_DDOT":0},{"OBJECT_NAME":"STARLINK-34122","OBJECT_ID":"2025-110X","EPOCH":"2025-11-26T19:17:02.068224","MEAN_MOTION":15.30207846,"ECCENTRICITY":0.0001147,"INCLINATION":53.1588,"RA_OF_ASC_NODE":144.4109,"ARG_OF_PERICENTER":90.3283,"MEAN_ANOMALY":269.7849,"EPHEMERIS_TYPE":0,"CLASSIFICATION_TYPE":"U","NORAD_CAT_ID":64117,"ELEMENT_SET_NO":999,"REV_AT_EPOCH":3013,"BSTAR":0.00087154,"MEAN_MOTION_DOT":0.00025548,"MEAN_MOTION_DDOT":0},{"OBJECT_NAME":"STARLINK-33964","OBJECT_ID":"2025-110Y","EPOCH":"2025-11-26T18:01:12.856800","MEAN_MOTION":15.30199799,"ECCENTRICITY":0.00011662,"INCLINATION":53.1602,"RA_OF_ASC_NODE":144.7922,"ARG_OF_PERICENTER":103.4234,"MEAN_ANOMALY":256.6897,"EPHEMERIS_TYPE":0,"CLASSIFICATION_TYPE":"U","NORAD_CAT_ID":64118,"ELEMENT_SET_NO":999,"REV_AT_EPOCH":3012,"BSTAR":0.0008533639,"MEAN_MOTION_DOT":0.00025,"MEAN_MOTION_DDOT":0},{"OBJECT_NAME":"STARLINK-34160","OBJECT_ID":"2025-110Z","EPOCH":"2025-11-26T17:38:27.528576","MEAN_MOTION":15.30167065,"ECCENTRICITY":0.00015365,"INCLINATION":53.1583,"RA_OF_ASC_NODE":144.6922,"ARG_OF_PERICENTER":102.0707,"MEAN_ANOMALY":258.0466,"EPHEMERIS_TYPE":0,"CLASSIFICATION_TYPE":"U","NORAD_CAT_ID":64119,"ELEMENT_SET_NO":999,"REV_AT_EPOCH":3012,"BSTAR":0.0018880368,"MEAN_MOTION_DOT":0.00055924,"MEAN_MOTION_DDOT":0},{"OBJECT_NAME":"STARLINK-34151","OBJECT_ID":"2025-110AA","EPOCH":"2025-11-26T18:58:57.142560","MEAN_MOTION":15.30229736,"ECCENTRICITY":0.00010755,"INCLINATION":53.1572,"RA_OF_ASC_NODE":145.0379,"ARG_OF_PERICENTER":83.5973,"MEAN_ANOMALY":276.515,"EPHEMERIS_TYPE":0,"CLASSIFICATION_TYPE":"U","NORAD_CAT_ID":64120,"ELEMENT_SET_NO":999,"REV_AT_EPOCH":3012,"BSTAR":0.00099419262,"MEAN_MOTION_DOT":0.00029229,"MEAN_MOTION_DDOT":0},{"OBJECT_NAME":"STARLINK-34189","OBJECT_ID":"2025-110AB","EPOCH":"2025-11-26T20:28:26.918976","MEAN_MOTION":15.30219758,"ECCENTRICITY":0.0001121,"INCLINATION":53.1558,"RA_OF_ASC_NODE":144.7151,"ARG_OF_PERICENTER":80.5639,"MEAN_ANOMALY":279.5489,"EPHEMERIS_TYPE":0,"CLASSIFICATION_TYPE":"U","NORAD_CAT_ID":64121,"ELEMENT_SET_NO":999,"REV_AT_EPOCH":3013,"BSTAR":0.00095727,"MEAN_MOTION_DOT":0.00028117,"MEAN_MOTION_DDOT":0},{"OBJECT_NAME":"STARLINK-33991","OBJECT_ID":"2025-110AC","EPOCH":"2025-11-26T19:06:23.667264","MEAN_MOTION":15.30219843,"ECCENTRICITY":0.00018709,"INCLINATION":53.1582,"RA_OF_ASC_NODE":144.3619,"ARG_OF_PERICENTER":93.8209,"MEAN_ANOMALY":266.3006,"EPHEMERIS_TYPE":0,"CLASSIFICATION_TYPE":"U","NORAD_CAT_ID":64122,"ELEMENT_SET_NO":999,"REV_AT_EPOCH":3012,"BSTAR":0.0013466053,"MEAN_MOTION_DOT":0.00039762,"MEAN_MOTION_DDOT":0},{"OBJECT_NAME":"STARLINK-11727 [DTC]","OBJECT_ID":"2025-111A","EPOCH":"2025-11-27T02:50:05.412480","MEAN_MOTION":15.70904237,"ECCENTRICITY":0.00012698,"INCLINATION":42.9995,"RA_OF_ASC_NODE":232.4432,"ARG_OF_PERICENTER":282.4316,"MEAN_ANOMALY":77.641,"EPHEMERIS_TYPE":0,"CLASSIFICATION_TYPE":"U","NORAD_CAT_ID":64123,"ELEMENT_SET_NO":999,"REV_AT_EPOCH":3050,"BSTAR":0.0018498479,"MEAN_MOTION_DOT":0.00244692,"MEAN_MOTION_DDOT":0},{"OBJECT_NAME":"STARLINK-11724 [DTC]","OBJECT_ID":"2025-111B","EPOCH":"2025-11-27T03:35:45.762144","MEAN_MOTION":15.70915132,"ECCENTRICITY":0.00028119,"INCLINATION":42.9996,"RA_OF_ASC_NODE":231.8033,"ARG_OF_PERICENTER":242.6247,"MEAN_ANOMALY":117.4335,"EPHEMERIS_TYPE":0,"CLASSIFICATION_TYPE":"U","NORAD_CAT_ID":64124,"ELEMENT_SET_NO":999,"REV_AT_EPOCH":3051,"BSTAR":0.0014802992,"MEAN_MOTION_DOT":0.00194636,"MEAN_MOTION_DDOT":0},{"OBJECT_NAME":"STARLINK-11725 [DTC]","OBJECT_ID":"2025-111C","EPOCH":"2025-11-27T02:27:09.304992","MEAN_MOTION":15.70941164,"ECCENTRICITY":0.00014004,"INCLINATION":43.0006,"RA_OF_ASC_NODE":232.3146,"ARG_OF_PERICENTER":302.1583,"MEAN_ANOMALY":57.9149,"EPHEMERIS_TYPE":0,"CLASSIFICATION_TYPE":"U","NORAD_CAT_ID":64125,"ELEMENT_SET_NO":999,"REV_AT_EPOCH":3050,"BSTAR":0.0025319391,"MEAN_MOTION_DOT":0.00339502,"MEAN_MOTION_DDOT":0},{"OBJECT_NAME":"STARLINK-11717 [DTC]","OBJECT_ID":"2025-111D","EPOCH":"2025-11-27T02:34:47.829792","MEAN_MOTION":15.7090114,"ECCENTRICITY":0.00014616,"INCLINATION":43.0004,"RA_OF_ASC_NODE":232.3557,"ARG_OF_PERICENTER":281.843,"MEAN_ANOMALY":78.2274,"EPHEMERIS_TYPE":0,"CLASSIFICATION_TYPE":"U","NORAD_CAT_ID":64126,"ELEMENT_SET_NO":999,"REV_AT_EPOCH":3045,"BSTAR":0.0016889391,"MEAN_MOTION_DOT":0.00222743,"MEAN_MOTION_DDOT":0},{"OBJECT_NAME":"STARLINK-11721 [DTC]","OBJECT_ID":"2025-111E","EPOCH":"2025-11-26T18:03:28.808928","MEAN_MOTION":15.70965406,"ECCENTRICITY":0.00012093,"INCLINATION":42.9975,"RA_OF_ASC_NODE":233.973,"ARG_OF_PERICENTER":225.2906,"MEAN_ANOMALY":134.7863,"EPHEMERIS_TYPE":0,"CLASSIFICATION_TYPE":"U","NORAD_CAT_ID":64127,"ELEMENT_SET_NO":999,"REV_AT_EPOCH":3045,"BSTAR":0.0017969727,"MEAN_MOTION_DOT":0.00238106,"MEAN_MOTION_DDOT":0}]
